[{"OBJECT_NAME":"STARLINK-31843","OBJECT_ID":"2024-088Q","EPOCH":"2026-03-09T11:11:04.807968","MEAN_MOTION":15.3019014,"ECCENTRICITY":0.00015489,"INCLINATION":53.1604,"RA_OF_ASC_NODE":141.2478,"ARG_OF_PERICENTER":87.5994,"MEAN_ANOMALY":272.5184,"EPHEMERIS_TYPE":0,"CLASSIFICATION_TYPE":"U","NORAD_CAT_ID":59722,"ELEMENT_SET_NO":999,"REV_AT_EPOCH":10364,"BSTAR":1.7556851e-5,"MEAN_MOTION_DOT":1.61e-6,"MEAN_MOTION_DDOT":0},{"OBJECT_NAME":"TEVEL2-5","OBJECT_ID":"2025-052E","EPOCH":"2026-03-09T23:11:54.246048","MEAN_MOTION":15.30817434,"ECCENTRICITY":0.00047002,"INCLINATION":97.4013,"RA_OF_ASC_NODE":325.3677,"ARG_OF_PERICENTER":95.3936,"MEAN_ANOMALY":264.7842,"EPHEMERIS_TYPE":0,"CLASSIFICATION_TYPE":"U","NORAD_CAT_ID":63214,"ELEMENT_SET_NO":999,"REV_AT_EPOCH":5491,"BSTAR":0.00071764727,"MEAN_MOTION_DOT":0.00021339,"MEAN_MOTION_DDOT":0}]
